CCSDS_OEM_VERS = 1.0
CREATION_DATE  = 2017-05-11T11:08:25
ORIGINATOR     = GMAT USER

META_START
OBJECT_NAME          = MOPSSat_alt_35785_km_RAAN_0_160
OBJECT_ID            = SatId
CENTER_NAME          = Earth
REF_FRAME            = EME2000
TIME_SYSTEM          = UTC
START_TIME           = 2017-01-01T00:00:00.000
USEABLE_START_TIME   = 2017-01-01T00:00:00.000
USEABLE_STOP_TIME    = 2017-01-02T00:00:00.000
STOP_TIME            = 2017-01-02T00:00:00.000
INTERPOLATION        = Lagrange
INTERPOLATION_DEGREE = 7 
META_STOP


                                                                                   

2017-01-01T09:19:10.000  -6.344154445227099e+04   1.431345283053723e+04   1.274339942514536e+00  -8.466104521740420e-01  -1.443675123169538e+00   8.720850516482143e-05
2017-01-01T09:19:20.000  -6.345000596045717e+04   1.429901504337092e+04   1.275212132026602e+00  -8.456912299433375e-01  -1.443882317357500e+00   8.722939781861282e-05
2017-01-01T09:19:30.000  -6.345845827690353e+04   1.428457518551878e+04   1.276084530393243e+00  -8.447721003853719e-01  -1.444089253875416e+00   8.725027568698245e-05
2017-01-01T09:19:40.000  -6.346690140256933e+04   1.427013325950064e+04   1.276957137469960e+00  -8.438530633861839e-01  -1.444295932859762e+00   8.727113876260098e-05
2017-01-01T09:19:50.000  -6.347533533840229e+04   1.425568926785159e+04   1.277829953111184e+00  -8.429341188329240e-01  -1.444502354446552e+00   8.729198703811301e-05
2017-01-01T09:20:00.000  -6.348376008532958e+04   1.424124321313912e+04   1.278702977169229e+00  -8.420152666149274e-01  -1.444708518771113e+00   8.731282050611392e-05
2017-01-01T09:20:10.000  -6.349217564428292e+04   1.422679509791916e+04   1.279576209496953e+00  -8.410965066209273e-01  -1.444914425968708e+00   8.733363915921229e-05
2017-01-01T09:20:20.000  -6.350058201608875e+04   1.421234492492673e+04   1.280449649936230e+00  -8.401778387511510e-01  -1.445120076171842e+00   8.735444298975732e-05
2017-01-01T09:20:30.000  -6.350897920160168e+04   1.419789269684495e+04   1.281323298331912e+00  -8.392592629026591e-01  -1.445325469513533e+00   8.737523199016977e-05
2017-01-01T09:20:40.000  -6.351736720165468e+04   1.418343841639097e+04   1.282197154526644e+00  -8.383407789747978e-01  -1.445530606126092e+00   8.739600615281867e-05
2017-01-01T09:20:50.000  -6.352574601725226e+04   1.416898208598344e+04   1.283071218380954e+00  -8.374223868480709e-01  -1.445735486145840e+00   8.741676547049919e-05
2017-01-01T09:21:00.000  -6.353411564937765e+04   1.415452370807416e+04   1.283945489753217e+00  -8.365040864052159e-01  -1.445940109708406e+00   8.743750993595597e-05
2017-01-01T09:21:10.000  -6.354247609903681e+04   1.414006328507299e+04   1.284819968504184e+00  -8.355858775264257e-01  -1.446144476949792e+00   8.745823954199144e-05
2017-01-01T09:21:20.000  -6.355082736714878e+04   1.412560081953479e+04   1.285694654485693e+00  -8.346677601012554e-01  -1.446348588003693e+00   8.747895428119498e-05
2017-01-01T09:21:30.000  -6.355916945462733e+04   1.411113631402072e+04   1.286569547549041e+00  -8.337497340197767e-01  -1.446552443003503e+00   8.749965414614480e-05
2017-01-01T09:21:40.000  -6.356750236238055e+04   1.409666977109814e+04   1.287444647545001e+00  -8.328317991725867e-01  -1.446756042082294e+00   8.752033912940674e-05
2017-01-01T09:21:50.000  -6.357582609123188e+04   1.408220119347994e+04   1.288319954315379e+00  -8.319139554596199e-01  -1.446959385370897e+00   8.754100922333739e-05
2017-01-01T09:22:00.000  -6.358414064202696e+04   1.406773058383696e+04   1.289195467704369e+00  -8.309962027782710e-01  -1.447162473000505e+00   8.756166442035022e-05
2017-01-01T09:22:10.000  -6.359244601559123e+04   1.405325794487184e+04   1.290071187554088e+00  -8.300785410280771e-01  -1.447365305101644e+00   8.758230471281050e-05
2017-01-01T09:22:20.000  -6.360074221291762e+04   1.403878327899246e+04   1.290947113724335e+00  -8.291609700900072e-01  -1.447567881808753e+00   8.760293009350116e-05
2017-01-01T09:22:30.000  -6.360902923497891e+04   1.402430658863849e+04   1.291823246072829e+00  -8.282434898471709e-01  -1.447770203255597e+00   8.762354055515691e-05
2017-01-01T09:22:40.000  -6.361730708277019e+04   1.400982787620762e+04   1.292699584459672e+00  -8.273261001801380e-01  -1.447972269576320e+00   8.764413609056971e-05
2017-01-01T09:22:50.000  -6.362557575720064e+04   1.399534714424278e+04   1.293576128736034e+00  -8.264088009788290e-01  -1.448174080902777e+00   8.766471669231988e-05
2017-01-01T09:23:00.000  -6.363383525917415e+04   1.398086439529322e+04   1.294452878752546e+00  -8.254915921336821e-01  -1.448375637366528e+00   8.768528235297626e-05
2017-01-01T09:23:10.000  -6.364208558958897e+04   1.396637963191439e+04   1.295329834359312e+00  -8.245744735356585e-01  -1.448576939098813e+00   8.770583306509561e-05
2017-01-01T09:23:20.000  -6.365032674925956e+04   1.395189285680747e+04   1.296206995397446e+00  -8.236574450850497e-01  -1.448777986228658e+00   8.772636882102703e-05
2017-01-01T09:23:30.000  -6.365855873902229e+04   1.393740407263158e+04   1.297084361710462e+00  -8.227405066796085e-01  -1.448978778885446e+00   8.774688961317579e-05
2017-01-01T09:23:40.000  -6.366678155969283e+04   1.392291328207911e+04   1.297961933139705e+00  -8.218236582193162e-01  -1.449179317197881e+00   8.776739543389757e-05
2017-01-01T09:23:50.000  -6.367499521225492e+04   1.390842048754326e+04   1.298839709544482e+00  -8.209068995853449e-01  -1.449379601298589e+00   8.778788627596835e-05
2017-01-01T09:24:00.000  -6.368319969767106e+04   1.389392569145132e+04   1.299717690781885e+00  -8.199902306611487e-01  -1.449579631319506e+00   8.780836213211298e-05
2017-01-01T09:24:10.000  -6.369139501693140e+04   1.387942889617868e+04   1.300595876711993e+00  -8.190736513270175e-01  -1.449779407393065e+00   8.782882299512691e-05
2017-01-01T09:24:20.000  -6.369958117092197e+04   1.386493010428007e+04   1.301474267183877e+00  -8.181571614747238e-01  -1.449978929648986e+00   8.784926885754820e-05
2017-01-01T09:24:30.000  -6.370775816053359e+04   1.385042931829879e+04   1.302352862047147e+00  -8.172407609954340e-01  -1.450178198216931e+00   8.786969971192831e-05
2017-01-01T09:24:40.000  -6.371592598663756e+04   1.383592654080925e+04   1.303231661149374e+00  -8.163244497824077e-01  -1.450377213225912e+00   8.789011555077183e-05
2017-01-01T09:24:50.000  -6.372408465009284e+04   1.382142177440555e+04   1.304110664336779e+00  -8.154082277302585e-01  -1.450575974804467e+00   8.791051636655352e-05
2017-01-01T09:25:00.000  -6.373223415175364e+04   1.380691502168694e+04   1.304989871455120e+00  -8.144920947340450e-01  -1.450774483080846e+00   8.793090215173802e-05
2017-01-01T09:25:10.000  -6.374037449247242e+04   1.379240628525255e+04   1.305869282350008e+00  -8.135760506889426e-01  -1.450972738183083e+00   8.795127289878717e-05
2017-01-01T09:25:20.000  -6.374850567312931e+04   1.377789556764961e+04   1.306748896870044e+00  -8.126600954869623e-01  -1.451170740239715e+00   8.797162860023363e-05
2017-01-01T09:25:30.000  -6.375662769461237e+04   1.376338287140799e+04   1.307628714864732e+00  -8.117442290191392e-01  -1.451368489379294e+00   8.799196924863153e-05
2017-01-01T09:25:40.000  -6.376474055781759e+04   1.374886819904015e+04   1.308508736184474e+00  -8.108284511755312e-01  -1.451565985730400e+00   8.801229483655647e-05
2017-01-01T09:25:50.000  -6.377284426366795e+04   1.373435155300650e+04   1.309388960682683e+00  -8.099127618430400e-01  -1.451763229422088e+00   8.803260535665352e-05
2017-01-01T09:26:00.000  -6.378093881308464e+04   1.371983293576738e+04   1.310269388212621e+00  -8.089971609086828e-01  -1.451960220583206e+00   8.805290080156489e-05
2017-01-01T09:26:10.000  -6.378902420698417e+04   1.370531234978827e+04   1.311150018627087e+00  -8.080816482599213e-01  -1.452156959342309e+00   8.807318116392274e-05
2017-01-01T09:26:20.000  -6.379710044626991e+04   1.369078979755417e+04   1.312030851777549e+00  -8.071662237855798e-01  -1.452353445827461e+00   8.809344643632822e-05
2017-01-01T09:26:30.000  -6.380516753182602e+04   1.367626528158136e+04   1.312911887513427e+00  -8.062508873765698e-01  -1.452549680166089e+00   8.811369661133608e-05
2017-01-01T09:26:40.000  -6.381322546454125e+04   1.366173880437458e+04   1.313793125684686e+00  -8.053356389232006e-01  -1.452745662485557e+00   8.813393168151413e-05
2017-01-01T09:26:50.000  -6.382127424520341e+04   1.364721036861866e+04   1.314674566130211e+00  -8.044204783272305e-01  -1.452941392910607e+00   8.815415163917764e-05
2017-01-01T09:27:00.000  -6.382931387462722e+04   1.363267997694641e+04   1.315556208691892e+00  -8.035054054872618e-01  -1.453136871566463e+00   8.817435647671153e-05
2017-01-01T09:27:10.000  -6.383734435360676e+04   1.361814763202488e+04   1.316438053209390e+00  -8.025904203041713e-01  -1.453332098577677e+00   8.819454618644999e-05
2017-01-01T09:27:20.000  -6.384536568310020e+04   1.360361333622114e+04   1.317320099540416e+00  -8.016755226600651e-01  -1.453527074072620e+00   8.821472076114148e-05
2017-01-01T09:27:30.000  -6.385337786404543e+04   1.358907709193562e+04   1.318202347540504e+00  -8.007607124392717e-01  -1.453721798178998e+00   8.823488019348506e-05
2017-01-01T09:27:40.000  -6.386138089740190e+04   1.357453890152672e+04   1.319084797067592e+00  -7.998459895235835e-01  -1.453916271024872e+00   8.825502447623572e-05
2017-01-01T09:27:50.000  -6.386937478404594e+04   1.355999876749868e+04   1.319967447970617e+00  -7.989313538041168e-01  -1.454110492736110e+00   8.827515360194139e-05
2017-01-01T09:28:00.000  -6.387735952484868e+04   1.354545669236220e+04   1.320850300097976e+00  -7.980168051725026e-01  -1.454304463438285e+00   8.829526756313879e-05
2017-01-01T09:28:10.000  -6.388533512067595e+04   1.353091267863426e+04   1.321733353297534e+00  -7.971023435208922e-01  -1.454498183256671e+00   8.831536635235257e-05
